MEAN_MOTION;ECCENTRICITY;INCLINATION;RA_OF_ASC_NODE;ARG_OF_PERICENTER;MEAN_ANOMALY;BSTAR;MEAN_MOTION_DOT;MEAN_MOTION_DDOT;TYPE
14.3421821;0.000206;86.4018;349.5808;76.2118;283.9307;1.656E-5;6.6E-7;0;Iridium
14.34218313;0.0002048;86.4018;349.3769;76.2822;283.8601;1.8583E-5;7.2E-7;0;Iridium
14.34218313;0.0002048;86.4018;349.3769;76.2822;283.8601;1.8583E-5;7.2E-7;0;Iridium
14.34218343;0.0002044;86.4017;349.1439;76.3383;283.804;1.7079E-5;6.8E-7;0;Iridium
14.34218427;0.0002028;86.4017;348.9401;76.4989;283.6432;1.927E-5;7.4E-7;0;Iridium
14.34218427;0.0002028;86.4017;348.9401;76.4989;283.6432;1.927E-5;7.4E-7;0;Iridium
14.34218428;0.0002022;86.4017;348.7362;76.5096;283.6325;1.69E-5;6.7E-7;0;Iridium
14.34218491;0.000201;86.4016;348.5614;76.7235;283.4185;1.8408E-5;7.1E-7;0;Iridium
14.34218538;0.000201;86.4015;348.3867;76.4357;283.7062;1.8532E-5;7.2E-7;0;Iridium
14.34218622;0.0001993;86.4015;348.1536;76.5963;283.5454;2.0489E-5;7.7E-7;0;Iridium
14.34218656;0.0001983;86.4015;347.9497;76.6622;283.4795;1.9977E-5;7.6E-7;0;Iridium
14.34218656;0.0001983;86.4015;347.9497;76.6622;283.4795;1.9977E-5;7.6E-7;0;Iridium
14.3421885;0.0001958;86.4014;347.5418;77.1562;282.9853;2.4785E-5;8.9E-7;0;Iridium
14.34218912;0.0001944;86.4013;347.3379;77.2651;282.8762;2.5929E-5;9.2E-7;0;Iridium
14.34218906;0.0001942;86.4013;347.3087;77.1952;282.946;2.5193E-5;9.0E-7;0;Iridium
14.3421893;0.0001939;86.4013;347.0757;77.9345;282.2068;2.4244E-5;8.8E-7;0;Iridium
14.3421899;0.0001928;86.4012;346.9009;77.9048;282.2363;2.551E-5;9.1E-7;0;Iridium
14.34219046;0.0001924;86.4012;346.6678;77.9581;282.183;2.4921E-5;9.0E-7;0;Iridium
14.34219159;0.0001916;86.4011;346.2016;78.2782;281.8628;2.4257E-5;8.8E-7;0;Iridium
14.3421925;0.000191;86.4011;345.9104;78.1393;282.0017;2.3626E-5;8.6E-7;0;Iridium
14.34219261;0.0001906;86.401;345.823;78.1581;281.9829;2.1916E-5;8.1E-7;0;Iridium
14.34219364;0.0001904;86.4009;345.5318;78.1079;282.033;2.2101E-5;8.2E-7;0;Iridium
14.34219404;0.0001897;86.4009;345.3861;78.2669;281.8739;2.083E-5;7.8E-7;0;Iridium
14.342195;0.0001886;86.4008;345.1239;78.621;281.5198;2.1231E-5;7.9E-7;0;Iridium
14.34219585;0.0001876;86.4008;344.9491;79.0669;281.0737;2.3468E-5;8.5E-7;0;Iridium
14.34219641;0.0001865;86.4007;344.6869;79.1481;280.9925;2.0885E-5;7.8E-7;0;Iridium
14.34219641;0.0001865;86.4007;344.6869;79.1481;280.9925;2.0885E-5;7.8E-7;0;Iridium
14.34219653;0.0001863;86.4006;344.6577;79.2102;280.9303;2.0765E-5;7.8E-7;0;Iridium
14.34219687;0.0001858;86.4006;344.5412;79.4731;280.6674;2.041E-5;7.7E-7;0;Iridium
14.34219669;0.0001852;86.4005;344.279;79.5956;280.5448;1.3893E-5;5.9E-7;0;Iridium
14.34219675;0.000185;86.4005;344.2498;79.6083;280.5322;1.3404E-5;5.7E-7;0;Iridium
14.34219703;0.0001845;86.4005;344.1333;79.9526;280.1878;1.344E-5;5.7E-7;0;Iridium
14.34219728;0.0001842;86.4005;343.871;80.2245;279.9159;1.2226E-5;5.4E-7;0;Iridium
14.34219729;0.000184;86.4004;343.8419;80.2062;279.9341;1.1609E-5;5.2E-7;0;Iridium
14.34219719;0.0001835;86.4004;343.6962;80.5043;279.6361;9.5693E-6;4.7E-7;0;Iridium
14.34219751;0.000183;86.4004;343.6088;80.6378;279.5025;1.0697E-5;5.0E-7;0;Iridium
14.34219793;0.0001824;86.4003;343.3466;80.8176;279.3226;9.9676E-6;4.8E-7;0;Iridium
14.34216112;0.0001808;86.4004;343.0263;79.3257;280.8143;9.382E-6;4.6E-7;0;Iridium
14.34216144;0.0001808;86.4003;342.9972;79.6025;280.5375;9.4723E-6;4.6E-7;0;Iridium
14.34216185;0.0001829;86.4002;342.8804;81.5329;278.6074;3.7003E-5;1.23E-6;0;Iridium
14.34216101;0.0001829;86.4001;342.6181;82.1158;278.0245;3.8347E-5;1.27E-6;0;Iridium
14.34216109;0.0001823;86.4001;342.4432;82.3328;277.8074;9.1368E-6;4.5E-7;0;Iridium
14.34216173;0.0001817;86.4;342.181;82.4968;277.6434;1.0446E-5;4.9E-7;0;Iridium
14.34216173;0.0001817;86.4;342.181;82.4968;277.6434;1.0446E-5;4.9E-7;0;Iridium
14.34216197;0.0001812;86.4;342.0353;82.9302;277.2099;1.0677E-5;5.0E-7;0;Iridium
14.34216334;0.0001806;86.3999;341.773;83.1968;276.9433;2.1102E-5;7.9E-7;0;Iridium
14.34216417;0.0001801;86.3998;341.6273;83.6711;276.469;2.5396E-5;9.1E-7;0;Iridium
14.34216466;0.0001794;86.3997;341.365;83.9879;276.1521;2.3706E-5;8.6E-7;0;Iridium
14.34216527;0.0001789;86.3996;341.1901;84.4903;275.6497;2.4792E-5;8.9E-7;0;Iridium
14.34216577;0.0001786;86.3995;340.9278;84.7482;275.3918;2.3008E-5;8.4E-7;0;Iridium
14.34216577;0.0001786;86.3995;340.9278;84.7482;275.3918;2.3008E-5;8.4E-7;0;Iridium
14.34216587;0.0001785;86.3995;340.8987;84.8141;275.3259;2.2761E-5;8.4E-7;0;Iridium
14.34216625;0.0001785;86.3994;340.7821;85.0961;275.0439;2.3589E-5;8.6E-7;0;Iridium
14.3421675;0.0001784;86.3993;340.4906;85.4382;274.7017;2.4816E-5;8.9E-7;0;Iridium
14.34216843;0.0001788;86.3993;340.374;85.8305;274.3095;2.8408E-5;9.9E-7;0;Iridium
14.34216893;0.0001785;86.3992;340.2866;85.9266;274.2134;2.9028E-5;1.01E-6;0;Iridium
14.34216998;0.0001786;86.399;339.9368;86.5921;273.5479;2.7571E-5;9.7E-7;0;Iridium
14.34217038;0.0001783;86.399;339.8202;86.7434;273.3966;2.6067E-5;9.3E-7;0;Iridium
14.34217038;0.0001783;86.399;339.8202;86.7434;273.3966;2.6067E-5;9.3E-7;0;Iridium
14.34217105;0.0001784;86.3989;339.5871;87.2725;272.8675;2.4382E-5;8.8E-7;0;Iridium
14.3421713;0.0001783;86.3988;339.4121;87.4616;272.6784;2.155E-5;8.0E-7;0;Iridium
14.34217253;0.0001783;86.3986;339.004;88.1721;271.9679;2.0302E-5;7.7E-7;0;Iridium
14.34217402;0.0001782;86.3984;338.5667;88.8796;271.2603;1.9989E-5;7.6E-7;0;Iridium
14.34217402;0.0001782;86.3984;338.5667;88.8796;271.2603;1.9989E-5;7.6E-7;0;Iridium
14.34217455;0.0001784;86.3983;338.3335;89.3788;270.7612;1.8861E-5;7.3E-7;0;Iridium
14.34217567;0.0001786;86.3981;337.9545;89.9582;270.1818;1.8359E-5;7.1E-7;0;Iridium
14.34217581;0.0001787;86.3981;337.8962;90.0865;270.0536;1.8631E-5;7.2E-7;0;Iridium
14.34217737;0.0001791;86.398;337.5171;90.5637;269.5764;2.0856E-5;7.8E-7;0;Iridium
14.34217883;0.0001805;86.3978;337.1089;91.4547;268.6855;2.3116E-5;8.5E-7;0;Iridium
14.34217857;0.0001808;86.3978;337.0798;91.5288;268.6115;2.1954E-5;8.1E-7;0;Iridium
14.34217912;0.000181;86.3978;336.9048;91.4828;268.6575;2.2785E-5;8.4E-7;0;Iridium
14.34217969;0.0001823;86.3977;336.6715;91.7167;268.4238;2.2701E-5;8.3E-7;0;Iridium
14.34218068;0.0001838;86.3976;336.3216;92.549;267.5916;2.3967E-5;8.7E-7;0;Iridium
14.34218068;0.0001838;86.3976;336.3216;92.549;267.5916;2.3967E-5;8.7E-7;0;Iridium
14.34218057;0.0001852;86.3976;336.2632;92.6992;267.4416;2.2558E-5;8.3E-7;0;Iridium
14.34218185;0.0001861;86.3974;335.8549;92.9859;267.155;2.3457E-5;8.5E-7;0;Iridium
14.34218325;0.000187;86.3972;335.4465;93.6596;266.4814;2.4592E-5;8.9E-7;0;Iridium
14.34218492;0.0001882;86.397;335.0673;94.1479;265.9932;2.6459E-5;9.4E-7;0;Iridium
14.34218498;0.0001887;86.397;335.009;94.2976;265.8435;2.5742E-5;9.2E-7;0;Iridium
14.34218647;0.0001903;86.3969;334.6299;94.6738;265.4675;2.5243E-5;9.0E-7;0;Iridium
14.34218654;0.0001903;86.3969;334.6007;94.7091;265.4322;2.4912E-5;9.0E-7;0;Iridium
14.34218764;0.0001917;86.3967;334.1924;94.8351;265.3064;2.2277E-5;8.2E-7;0;Iridium
14.34218867;0.0001936;86.3966;333.7548;95.5688;264.5728;1.9073E-5;7.3E-7;0;Iridium
14.3421896;0.000196;86.3964;333.3756;96.2684;263.8735;1.6871E-5;6.7E-7;0;Iridium
14.3421896;0.000196;86.3964;333.3756;96.2684;263.8735;1.6871E-5;6.7E-7;0;Iridium
14.34218958;0.0001962;86.3964;333.3464;96.3397;263.8022;1.6374E-5;6.6E-7;0;Iridium
14.34219019;0.0001963;86.3963;333.1714;96.3096;263.8323;1.6979E-5;6.7E-7;0;Iridium
14.34219132;0.0001979;86.3962;332.7338;96.6029;263.5392;1.6342E-5;6.6E-7;0;Iridium
14.34219177;0.0001985;86.3961;332.5588;96.5747;263.5675;1.6432E-5;6.6E-7;0;Iridium
14.34219184;0.0001993;86.3961;332.4129;96.8103;263.332;1.6382E-5;6.6E-7;0;Iridium
14.34219289;0.0002021;86.396;332.092;97.2096;262.9329;1.7363E-5;6.8E-7;0;Iridium
14.34219387;0.0002042;86.3959;331.7127;97.2528;262.89;1.8749E-5;7.2E-7;0;Iridium
14.3421941;0.000205;86.3959;331.5668;97.3384;262.8045;1.9968E-5;7.6E-7;0;Iridium
14.34219454;0.0002061;86.3958;331.3042;97.2967;262.8463;1.8568E-5;7.2E-7;0;Iridium
14.34219463;0.0002064;86.3958;331.275;97.2834;262.8596;1.8686E-5;7.2E-7;0;Iridium
14.34219562;0.0002082;86.3957;330.8665;97.3191;262.8242;2.0117E-5;7.6E-7;0;Iridium
14.3421968;0.00021;86.3955;330.4872;97.3713;262.7722;2.2316E-5;8.2E-7;0;Iridium
14.34219722;0.0002106;86.3955;330.3121;97.3867;262.7568;2.3206E-5;8.5E-7;0;Iridium
14.34219678;0.0002107;86.3954;330.0786;97.1885;262.955;1.9367E-5;7.4E-7;0;Iridium
14.34218351;0.0002195;86.3955;330.0202;97.6211;262.5234;1.8779E-5;7.2E-7;0;Iridium
14.34218083;0.0002188;86.3952;329.641;96.716;263.4284;1.9502E-5;7.4E-7;0;Iridium
14.34218101;0.0002185;86.3953;329.6118;96.6235;263.521;1.9137E-5;7.3E-7;0;Iridium
14.34218118;0.000219;86.3952;329.4951;96.7635;263.381;1.9591E-5;7.5E-7;0;Iridium
14.34218115;0.0002196;86.3951;329.2324;96.7369;263.4076;1.8548E-5;7.2E-7;0;Iridium
14.34218125;0.0002196;86.3951;329.2032;96.7604;263.3841;1.8087E-5;7.0E-7;0;Iridium
14.34217934;0.0002098;86.395;329.0571;93.3268;266.8168;-3.6079E-6;1.0E-7;0;Iridium
14.34218112;0.000221;86.3949;328.7945;97.0066;263.1381;8.1198E-6;4.3E-7;0;Iridium
14.34218112;0.000221;86.3949;328.7945;97.0066;263.1381;8.1198E-6;4.3E-7;0;Iridium
14.34218145;0.0002215;86.3949;328.6485;97.3114;262.8333;9.9824E-6;4.8E-7;0;Iridium
14.34218221;0.000223;86.3948;328.3567;97.2493;262.8956;9.6255E-6;4.7E-7;0;Iridium
14.34218207;0.000224;86.3947;327.9774;97.2644;262.8807;5.0928E-6;3.4E-7;0;Iridium
14.34218225;0.0002245;86.3947;327.8022;97.2765;262.8686;5.1067E-6;3.4E-7;0;Iridium
14.34218257;0.000226;86.3946;327.5395;97.3096;262.8357;3.7084E-6;3.0E-7;0;Iridium
14.34218286;0.0002263;86.3946;327.3936;97.5651;262.5802;5.7158E-6;3.6E-7;0;Iridium
14.34218259;0.0002273;86.3946;327.1601;97.4595;262.6859;2.9372E-6;2.8E-7;0;Iridium
14.34218116;0.0002294;86.3945;326.693;97.3791;262.7666;-4.5563E-6;7.0E-8;0;Iridium
14.34218091;0.0002208;86.3943;326.2844;93.7304;266.4145;-1.9507E-6;1.4E-7;0;Iridium
14.34218069;0.0002219;86.3943;326.1384;93.8718;266.2732;-2.6392E-6;1.2E-7;0;Iridium
14.34218082;0.0002239;86.3941;325.8756;94.0011;266.1441;-2.0951E-6;1.4E-7;0;Iridium
